{
  "type": "FeatureCollection",
  "features": [
    {
      "type": "Feature",
      "properties": {
        "norad_id": 34570,
        "name": "COSMOS 2251 DEB",
        "group": "cosmos-2251-debris",
        "lat": -14.302974332849164,
        "lon": 40.54103978711007,
        "alt_km": 910.9480935113061,
        "timestamp": "2025-12-13T20:38:51.402495+00:00",
        "meta_object_name": "COSMOS 2251 DEB",
        "meta_object_id": "1993-036VG",
        "meta_epoch": "2025-12-12T21:31:23.950272",
        "meta_mean_motion": 13.99819861,
        "meta_eccentricity": 0.01902121,
        "meta_inclination": 73.9571,
        "meta_ra_of_asc_node": 218.0093,
        "meta_arg_of_pericenter": 100.472,
        "meta_mean_anomaly": 278.5393,
        "meta_ephemeris_type": 0,
        "meta_classification_type": "U",
        "meta_norad_cat_id": 34570,
        "meta_element_set_no": 999,
        "meta_rev_at_epoch": 85603,
        "meta_bstar": 0.00067758269,
        "meta_mean_motion_dot": 1.139e-05,
        "meta_mean_motion_ddot": 0,
        "tle_line1": "1 34570U 93036VG  25346.89680498  .00001139  00000+0  67758-3 0  9991",
        "tle_line2": "2 34570  73.9571 218.0093 0190212 100.4720 278.5393 13.99819861856039"
      },
      "geometry": {
        "type": "Point",
        "coordinates": [
          40.54103978711007,
          -14.302974332849164
        ]
      }
    },
    {
      "type": "Feature",
      "properties": {
        "norad_id": 34571,
        "name": "COSMOS 2251 DEB",
        "group": "cosmos-2251-debris",
        "lat": -57.12794735949475,
        "lon": 26.620195227223967,
        "alt_km": 693.9020782029384,
        "timestamp": "2025-12-13T20:38:51.402505+00:00",
        "meta_object_name": "COSMOS 2251 DEB",
        "meta_object_id": "1993-036VH",
        "meta_epoch": "2025-12-13T06:16:53.696640",
        "meta_mean_motion": 14.48823759,
        "meta_eccentricity": 0.00659661,
        "meta_inclination": 74.0385,
        "meta_ra_of_asc_node": 181.4538,
        "meta_arg_of_pericenter": 216.2761,
        "meta_mean_anomaly": 143.3919,
        "meta_ephemeris_type": 0,
        "meta_classification_type": "U",
        "meta_norad_cat_id": 34571,
        "meta_element_set_no": 999,
        "meta_rev_at_epoch": 87301,
        "meta_bstar": 0.0035055675,
        "meta_mean_motion_dot": 0.00013615,
        "meta_mean_motion_ddot": 0,
        "tle_line1": "1 34571U 93036VH  25347.26173260  .00013615  00000+0  35056-2 0  9995",
        "tle_line2": "2 34571  74.0385 181.4538 0065966 216.2761 143.3919 14.48823759873016"
      },
      "geometry": {
        "type": "Point",
        "coordinates": [
          26.620195227223967,
          -57.12794735949475
        ]
      }
    },
    {
      "type": "Feature",
      "properties": {
        "norad_id": 34572,
        "name": "COSMOS 2251 DEB",
        "group": "cosmos-2251-debris",
        "lat": 66.7265890031784,
        "lon": -108.41010365293963,
        "alt_km": 710.4417084336073,
        "timestamp": "2025-12-13T20:38:51.402516+00:00",
        "meta_object_name": "COSMOS 2251 DEB",
        "meta_object_id": "1993-036VJ",
        "meta_epoch": "2025-12-12T01:39:23.053248",
        "meta_mean_motion": 14.49993335,
        "meta_eccentricity": 0.00629257,
        "meta_inclination": 74.0101,
        "meta_ra_of_asc_node": 116.7677,
        "meta_arg_of_pericenter": 190.7051,
        "meta_mean_anomaly": 290.1646,
        "meta_ephemeris_type": 0,
        "meta_classification_type": "U",
        "meta_norad_cat_id": 34572,
        "meta_element_set_no": 999,
        "meta_rev_at_epoch": 87368,
        "meta_bstar": 0.0042166825,
        "meta_mean_motion_dot": 0.00016761,
        "meta_mean_motion_ddot": 0,
        "tle_line1": "1 34572U 93036VJ  25346.06901682  .00016761  00000+0  42167-2 0  9996",
        "tle_line2": "2 34572  74.0101 116.7677 0062925 190.7051 290.1646 14.49993335873688"
      },
      "geometry": {
        "type": "Point",
        "coordinates": [
          -108.41010365293963,
          66.7265890031784
        ]
      }
    },
    {
      "type": "Feature",
      "properties": {
        "norad_id": 34574,
        "name": "COSMOS 2251 DEB",
        "group": "cosmos-2251-debris",
        "lat": 70.31984478801039,
        "lon": 93.95900658419036,
        "alt_km": 606.7467320623009,
        "timestamp": "2025-12-13T20:38:51.402527+00:00",
        "meta_object_name": "COSMOS 2251 DEB",
        "meta_object_id": "1993-036VL",
        "meta_epoch": "2025-12-13T05:52:43.571136",
        "meta_mean_motion": 14.70619402,
        "meta_eccentricity": 0.00669224,
        "meta_inclination": 74.0693,
        "meta_ra_of_asc_node": 42.154,
        "meta_arg_of_pericenter": 63.0333,
        "meta_mean_anomaly": 358.5164,
        "meta_ephemeris_type": 0,
        "meta_classification_type": "U",
        "meta_norad_cat_id": 34574,
        "meta_element_set_no": 999,
        "meta_rev_at_epoch": 88786,
        "meta_bstar": 0.0015012418,
        "meta_mean_motion_dot": 9.435e-05,
        "meta_mean_motion_ddot": 0,
        "tle_line1": "1 34574U 93036VL  25347.24494874  .00009435  00000+0  15012-2 0  9998",
        "tle_line2": "2 34574  74.0693  42.1540 0066922  63.0333 358.5164 14.70619402887866"
      },
      "geometry": {
        "type": "Point",
        "coordinates": [
          93.95900658419036,
          70.31984478801039
        ]
      }
    },
    {
      "type": "Feature",
      "properties": {
        "norad_id": 34576,
        "name": "COSMOS 2251 DEB",
        "group": "cosmos-2251-debris",
        "lat": -12.98220614389192,
        "lon": 132.28976963593135,
        "alt_km": 710.614260250798,
        "timestamp": "2025-12-13T20:38:51.402538+00:00",
        "meta_object_name": "COSMOS 2251 DEB",
        "meta_object_id": "1993-036VN",
        "meta_epoch": "2025-12-12T20:39:03.808800",
        "meta_mean_motion": 14.55426972,
        "meta_eccentricity": 0.00080845,
        "meta_inclination": 74.0334,
        "meta_ra_of_asc_node": 137.9678,
        "meta_arg_of_pericenter": 273.718,
        "meta_mean_anomaly": 236.1333,
        "meta_ephemeris_type": 0,
        "meta_classification_type": "U",
        "meta_norad_cat_id": 34576,
        "meta_element_set_no": 999,
        "meta_rev_at_epoch": 88468,
        "meta_bstar": 0.0013583152,
        "meta_mean_motion_dot": 5.883e-05,
        "meta_mean_motion_ddot": 0,
        "tle_line1": "1 34576U 93036VN  25346.86046075  .00005883  00000+0  13583-2 0  9997",
        "tle_line2": "2 34576  74.0334 137.9678 0008084 273.7180 236.1333 14.55426972884687"
      },
      "geometry": {
        "type": "Point",
        "coordinates": [
          132.28976963593135,
          -12.98220614389192
        ]
      }
    },
    {
      "type": "Feature",
      "properties": {
        "norad_id": 34579,
        "name": "COSMOS 2251 DEB",
        "group": "cosmos-2251-debris",
        "lat": 15.662332722645642,
        "lon": 37.20904141140467,
        "alt_km": 753.0455020488653,
        "timestamp": "2025-12-13T20:38:51.402548+00:00",
        "meta_object_name": "COSMOS 2251 DEB",
        "meta_object_id": "1993-036VR",
        "meta_epoch": "2025-12-13T02:18:48.805344",
        "meta_mean_motion": 14.45310513,
        "meta_eccentricity": 0.00275599,
        "meta_inclination": 74.0529,
        "meta_ra_of_asc_node": 223.229,
        "meta_arg_of_pericenter": 291.8247,
        "meta_mean_anomaly": 218.8633,
        "meta_ephemeris_type": 0,
        "meta_classification_type": "U",
        "meta_norad_cat_id": 34579,
        "meta_element_set_no": 999,
        "meta_rev_at_epoch": 88179,
        "meta_bstar": 0.00063408989,
        "meta_mean_motion_dot": 2.211e-05,
        "meta_mean_motion_ddot": 0,
        "tle_line1": "1 34579U 93036VR  25347.09639821  .00002211  00000+0  63409-3 0  9998",
        "tle_line2": "2 34579  74.0529 223.2290 0027559 291.8247 218.8633 14.45310513881799"
      },
      "geometry": {
        "type": "Point",
        "coordinates": [
          37.20904141140467,
          15.662332722645642
        ]
      }
    },
    {
      "type": "Feature",
      "properties": {
        "norad_id": 34582,
        "name": "COSMOS 2251 DEB",
        "group": "cosmos-2251-debris",
        "lat": 73.3863956352266,
        "lon": 16.470128429546357,
        "alt_km": 730.794311364205,
        "timestamp": "2025-12-13T20:38:51.402558+00:00",
        "meta_object_name": "COSMOS 2251 DEB",
        "meta_object_id": "1993-036VU",
        "meta_epoch": "2025-12-13T05:14:35.304288",
        "meta_mean_motion": 14.43329633,
        "meta_eccentricity": 0.00478772,
        "meta_inclination": 74.0198,
        "meta_ra_of_asc_node": 271.4864,
        "meta_arg_of_pericenter": 21.5025,
        "meta_mean_anomaly": 338.8128,
        "meta_ephemeris_type": 0,
        "meta_classification_type": "U",
        "meta_norad_cat_id": 34582,
        "meta_element_set_no": 999,
        "meta_rev_at_epoch": 87954,
        "meta_bstar": 0.0012839296,
        "meta_mean_motion_dot": 4.365e-05,
        "meta_mean_motion_ddot": 0,
        "tle_line1": "1 34582U 93036VU  25347.21846417  .00004365  00000+0  12839-2 0  9999",
        "tle_line2": "2 34582  74.0198 271.4864 0047877  21.5025 338.8128 14.43329633879547"
      },
      "geometry": {
        "type": "Point",
        "coordinates": [
          16.470128429546357,
          73.3863956352266
        ]
      }
    }
  ]
}